NORAD_CAT_ID,OBJECT_NAME,OBJECT_TYPE,EPOCH,MEAN_MOTION,ECCENTRICITY,INCLINATION,RA_OF_ASC_NODE,ARG_OF_PERICENTER,MEAN_ANOMALY,BSTAR,MEAN_MOTION_DOT,MEAN_MOTION_DDOT,TLE_LINE0,TLE_LINE1,TLE_LINE2,SEMIMAJOR_AXIS,PERIOD,APOGEE,PERIGEE,DECAYED
53012.0,STARLINK-4271,PAYLOAD,2024-07-07 13:52:06,15.08841524,0.0001169,53.2174,313.0245,91.7853,268.3273,1.9857e-05,2.8e-07,0.0,0 STARLINK-4271,1 53012U 22076AC  24189.57784856  .00000028  00000-0  19857-4 0  9996,2 53012  53.2174 313.0245 0001169  91.7853 268.3273 15.08841524110745,6917.876,95.437,540.549,538.932,0.0
53012.0,STARLINK-4271,PAYLOAD,2024-07-07 15:27:29,15.08844012,0.0001195,53.2182,312.727,90.5619,269.551,4.4765e-05,4.25e-06,0.0,0 STARLINK-4271,1 53012U 22076AC  24189.64408629  .00000425  00000-0  44765-4 0  9992,2 53012  53.2182 312.7270 0001195  90.5619 269.5510 15.08844012111220,6917.868,95.437,540.56,538.906,0.0
53012.0,STARLINK-4271,PAYLOAD,2024-07-08 13:42:53,15.08834619,0.0001324,53.2183,308.5648,91.53,268.5844,5.9063e-05,6.52e-06,0.0,0 STARLINK-4271,1 53012U 22076AC  24190.57145282  .00000652  00000-0  59063-4 0  9998,2 53012  53.2183 308.5648 0001324  91.5300 268.5844 15.08834619111361,6917.897,95.438,540.678,538.846,0.0
53012.0,STARLINK-4271,PAYLOAD,2024-07-08 18:29:02,15.08840164,0.0001652,53.2176,307.6712,82.9457,277.1723,9.3976e-05,1.208e-05,0.0,0 STARLINK-4271,1 53012U 22076AC  24190.77016922  .00001208  00000-0  93976-4 0  9997,2 53012  53.2176 307.6712 0001652  82.9457 277.1723 15.08840164110921,6917.88,95.438,540.888,538.602,0.0
53012.0,STARLINK-4271,PAYLOAD,2024-07-09 13:33:40,15.08846265,0.0001706,53.2188,304.0954,108.0506,252.0672,-2.8086e-05,-7.35e-06,0.0,0 STARLINK-4271,1 53012U 22076AC  24191.56504899 -.00000735  00000-0 -28086-4 0  9996,2 53012  53.2188 304.0954 0001706 108.0506 252.0672 15.08846265111045,6917.861,95.437,540.906,538.546,0.0
53012.0,STARLINK-4271,PAYLOAD,2024-07-09 16:44:26,15.08849307,0.0001933,53.2186,303.5011,128.4271,231.6895,5.6704e-06,-1.98e-06,0.0,0 STARLINK-4271,1 53012U 22076AC  24191.69752416 -.00000198  00000-0  56704-5 0  9991,2 53012  53.2186 303.5011 0001933 128.4271 231.6895 15.08849307111060,6917.852,95.437,541.054,538.38,0.0
53012.0,STARLINK-4271,PAYLOAD,2024-07-10 00:41:22,15.08838721,0.0001276,53.2184,302.0162,86.3144,273.7994,-2.3765e-05,-6.66e-06,0.0,0 STARLINK-4271,1 53012U 22076AC  24192.02873245 -.00000666  00000-0 -23765-4 0  9994,2 53012  53.2184 302.0162 0001276  86.3144 273.7994 15.08838721111582,6917.884,95.438,540.632,538.867,0.0
53012.0,STARLINK-4271,PAYLOAD,2024-07-10 13:24:27,15.08833838,0.0001285,53.218,299.6386,86.9943,273.1196,3.787e-05,3.15e-06,0.0,0 STARLINK-4271,1 53012U 22076AC  24192.55865525  .00000315  00000-0  37870-4 0  9995,2 53012  53.2180 299.6386 0001285  86.9943 273.1196 15.08833838111199,6917.899,95.438,540.653,538.875,0.0
53012.0,STARLINK-4271,PAYLOAD,2024-07-10 16:35:13,15.08838411,0.0001489,53.2187,299.0419,109.1074,251.008,4.7623e-05,4.7e-06,0.0,0 STARLINK-4271,1 53012U 22076AC  24192.69113194  .00000470  00000-0  47623-4 0  9997,2 53012  53.2187 299.0419 0001489 109.1074 251.0080 15.08838411111218,6917.885,95.438,540.78,538.72,0.0
53012.0,STARLINK-4271,PAYLOAD,2024-07-11 13:15:13,15.08859578,0.0001354,53.2174,295.1822,87.3976,272.7171,0.0001379,1.909e-05,0.0,0 STARLINK-4271,1 53012U 22076AC  24193.55223538  .00001909  00000-0  13790-3 0  9992,2 53012  53.2174 295.1822 0001354  87.3976 272.7171 15.08859578111340,6917.821,95.436,540.622,538.749,0.0
53012.0,STARLINK-4271,PAYLOAD,2024-07-11 16:25:59,15.08862077,0.0001393,53.2176,294.5862,93.9336,266.1815,0.00018442,2.65e-05,0.0,0 STARLINK-4271,1 53012U 22076AC  24193.68471167  .00002650  00000-0  18442-3 0  9992,2 53012  53.2176 294.5862 0001393  93.9336 266.1815 15.08862077111839,6917.813,95.436,540.642,538.714,0.0
53012.0,STARLINK-4271,PAYLOAD,2024-07-12 00:22:55,15.08842112,0.0001063,53.2162,293.098,106.6052,253.5057,4.9354e-06,-2.09e-06,0.0,0 STARLINK-4271,1 53012U 22076AC  24194.01592444 -.00000209  00000-0  49354-5 0  9999,2 53012  53.2162 293.0980 0001063 106.6052 253.5057 15.08842112111881,6917.874,95.437,540.474,539.004,0.0
53012.0,STARLINK-4271,PAYLOAD,2024-07-12 11:30:38,15.0883459,0.0001607,53.2173,291.019,101.1997,258.9176,1.6256e-05,-2.9e-07,0.0,0 STARLINK-4271,1 53012U 22076AC  24194.47961325 -.00000029  00000-0  16256-4 0  9991,2 53012  53.2173 291.0190 0001607 101.1997 258.9176 15.08834590111956,6917.897,95.438,540.874,538.65,0.0
53012.0,STARLINK-4271,PAYLOAD,2024-07-13 12:56:48,15.08849234,0.0001461,53.2168,286.2629,95.195,264.9209,8.629e-05,1.086e-05,0.0,0 STARLINK-4271,1 53012U 22076AC  24195.53944725  .00001086  00000-0  86290-4 0  9992,2 53012  53.2168 286.2629 0001461  95.1950 264.9209 15.08849234112116,6917.852,95.437,540.728,538.706,0.0
53012.0,STARLINK-4271,PAYLOAD,2024-07-13 22:29:07,15.08842318,0.0001422,53.2167,284.4776,96.5759,263.5395,0.00019594,2.832e-05,0.0,0 STARLINK-4271,1 53012U 22076AC  24195.93689242  .00002832  00000-0  19594-3 0  9998,2 53012  53.2167 284.4776 0001422  96.5759 263.5395 15.08842318111708,6917.873,95.437,540.722,538.755,0.0
53012.0,STARLINK-4271,PAYLOAD,2024-07-14 12:47:36,15.08837076,0.0001639,53.218,281.8064,96.5377,263.5801,0.00012297,1.669e-05,0.0,0 STARLINK-4271,1 53012U 22076AC  24196.53305902  .00001669  00000-0  12297-3 0  9993,2 53012  53.2180 281.8064 0001639  96.5377 263.5801 15.08837076112269,6917.889,95.438,540.888,538.62,0.0
53012.0,STARLINK-4271,PAYLOAD,2024-07-15 12:38:22,15.08857444,0.0001402,53.2162,277.342,85.462,274.6532,0.00075769,0.00011797,0.0,0 STARLINK-4271,1 53012U 22076AC  24197.52665397  .00011797  00000-0  75769-3 0  9996,2 53012  53.2162 277.3420 0001402  85.4620 274.6532 15.08857444112413,6917.827,95.436,540.662,538.722,0.0
53012.0,STARLINK-4271,PAYLOAD,2024-07-15 22:10:41,15.08849804,0.0001457,53.2161,275.5571,91.1008,269.0151,0.00016824,2.391e-05,0.0,0 STARLINK-4271,1 53012U 22076AC  24197.92409287  .00002391  00000-0  16824-3 0  9991,2 53012  53.2161 275.5571 0001457  91.1008 269.0151 15.08849804112004,6917.85,95.437,540.723,538.707,0.0
53012.0,STARLINK-4271,PAYLOAD,2024-07-16 12:29:09,15.08846534,0.000153,53.2166,272.8784,83.8102,276.3064,0.00016521,2.343e-05,0.0,0 STARLINK-4271,1 53012U 22076AC  24198.52025344  .00002343  00000-0  16521-3 0  9997,2 53012  53.2166 272.8784 0001530  83.8102 276.3064 15.08846534112090,6917.86,95.437,540.784,538.667,0.0
53012.0,STARLINK-4271,PAYLOAD,2024-07-17 05:58:24,15.08839066,0.0001506,53.2155,269.6079,69.396,290.7193,1.9951e-05,3e-07,0.0,0 STARLINK-4271,1 53012U 22076AC  24199.24889600  .00000030  00000-0  19951-4 0  9992,2 53012  53.2155 269.6079 0001506  69.3960 290.7193 15.08839066112672,6917.883,95.438,540.79,538.706,0.0
53012.0,STARLINK-4271,PAYLOAD,2024-07-17 12:19:56,15.08847549,0.0001479,53.2159,268.4184,65.5365,294.5781,2.9331e-05,1.79e-06,0.0,0 STARLINK-4271,1 53012U 22076AC  24199.51385345  .00000179  00000-0  29331-4 0  9996,2 53012  53.2159 268.4184 0001479  65.5365 294.5781 15.08847549112249,6917.857,95.437,540.745,538.699,0.0
53012.0,STARLINK-4271,PAYLOAD,2024-07-18 10:35:21,15.08838632,0.0001187,53.2151,264.2546,87.5938,272.519,0.00013435,1.851e-05,0.0,0 STARLINK-4271,1 53012U 22076AC  24200.44121809  .00001851  00000-0  13435-3 0  9999,2 53012  53.2151 264.2546 0001187  87.5938 272.5190 15.08838632112853,6917.885,95.438,540.571,538.928,0.0
53012.0,STARLINK-4271,PAYLOAD,2024-07-19 10:26:08,15.08843717,0.0001307,53.2141,259.7935,87.3294,272.7848,0.00017483,2.496e-05,0.0,0 STARLINK-4271,1 53012U 22076AC  24201.43481766  .00002496  00000-0  17483-3 0  9993,2 53012  53.2141 259.7935 0001307  87.3294 272.7848 15.08843717112537,6917.869,95.437,540.638,538.83,0.0
53012.0,STARLINK-4271,PAYLOAD,2024-07-19 21:33:50,15.08838706,0.000136,53.2148,257.7114,100.3053,259.8092,3.3223e-05,2.41e-06,0.0,0 STARLINK-4271,1 53012U 22076AC  24201.89849979  .00000241  00000-0  33223-4 0  9994,2 53012  53.2148 257.7114 0001360 100.3053 259.8092 15.08838706112606,6917.884,95.438,540.69,538.809,0.0
53012.0,STARLINK-4271,PAYLOAD,2024-07-20 10:16:55,15.08838655,0.0001416,53.2158,255.3341,89.1196,270.9959,8.0019e-05,9.86e-06,0.0,0 STARLINK-4271,1 53012U 22076AC  24202.42842105  .00000986  00000-0  80019-4 0  9999,2 53012  53.2158 255.3341 0001416  89.1196 270.9959 15.08838655112684,6917.885,95.438,540.729,538.77,0.0
53012.0,STARLINK-4271,PAYLOAD,2024-07-21 10:07:42,15.08839295,0.0001317,53.2159,250.8736,86.318,273.7963,7.8807e-05,9.67e-06,0.0,0 STARLINK-4271,1 53012U 22076AC  24203.42202196  .00000967  00000-0  78807-4 0  9991,2 53012  53.2159 250.8736 0001317  86.3180 273.7963 15.08839295113302,6917.883,95.438,540.659,538.836,0.0
53012.0,STARLINK-4271,PAYLOAD,2024-07-22 08:23:06,15.08845338,0.0001437,53.215,246.707,103.2469,256.8684,0.00013499,1.861e-05,0.0,0 STARLINK-4271,1 53012U 22076AC  24204.34937840  .00001861  00000-0  13499-3 0  9993,2 53012  53.2150 246.7070 0001437 103.2469 256.8684 15.08845338112979,6917.864,95.437,540.723,538.735,0.0
53012.0,STARLINK-4271,PAYLOAD,2024-07-23 03:27:44,15.08839998,0.0001315,53.2144,243.1411,90.3199,269.7944,9.4466e-05,1.216e-05,0.0,0 STARLINK-4271,1 53012U 22076AC  24205.14426390  .00001216  00000-0  94466-4 0  9993,2 53012  53.2144 243.1411 0001315  90.3199 269.7944 15.08839998113566,6917.88,95.438,540.655,538.836,0.0
53012.0,STARLINK-4271,PAYLOAD,2024-07-23 09:49:16,15.08850204,0.0001278,53.2143,241.9524,92.4743,267.6396,0.0001782,2.55e-05,0.0,0 STARLINK-4271,1 53012U 22076AC  24205.40921483  .00002550  00000-0  17820-3 0  9995,2 53012  53.2143 241.9524 0001278  92.4743 267.6396 15.08850204113608,6917.849,95.437,540.598,538.83,0.0
53012.0,STARLINK-4271,PAYLOAD,2024-07-24 11:15:28,15.08827998,0.000119,53.2134,237.1965,86.4526,273.6603,3.5513e-05,2.77e-06,0.0,0 STARLINK-4271,1 53012U 22076AC  24206.46907520  .00000277  00000-0  35513-4 0  9992,2 53012  53.2134 237.1965 0001190  86.4526 273.6603 15.08827998113768,6917.917,95.438,540.605,538.959,0.0
